LEMUR-2-GREENBERG       
1 42837U 17042N   26063.02601664  .00025555  00000+0  94309-3 0  9999
2 42837  97.3764 244.4208 0009441  23.3828 336.7839 15.27711903472312
LEMUR-2-FURIAUS         
1 42840U 17042R   26063.06022436  .00035028  00000+0  13628-2 0  9991
2 42840  97.3736 242.6766 0007569  77.2135 282.9949 15.25906313472157
CORVUS BC2              
1 42846U 17042X   26063.01174544  .00006979  00000+0  48762-3 0  9991
2 42846  97.3926 228.5700 0014248 111.2589 249.0161 15.05538924471234
CORVUS BC1              
1 42847U 17042Y   26063.01907854  .00005395  00000+0  37594-3 0  9992
2 42847  97.3954 229.3188 0013267  89.3350 270.9397 15.05753866471267
VRSS-2                  
1 42954U 17060A   26063.20110916  .00001285  00000+0  17183-3 0  9993
2 42954  97.6663 105.5958 0018612  83.8932 276.4401 14.81002325452918
MOHAMMED VI-A           
1 43005U 17070A   26063.21075572  .00000497  00000+0  77574-4 0  9996
2 43005  97.9449 137.0369 0001356  98.1652 261.9711 14.77111386448485
FENGYUN 3D              
1 43010U 17072A   26063.20949678  .00000203  00000+0  11756-3 0  9994
2 43010  99.0015  35.7954 0001864  24.4605 335.6658 14.19713019430095
CZ-4C R/B               
1 43012U 17072C   26063.16278509  .00000875  00000+0  17957-3 0  9993
2 43012  98.5701 167.7893 0123665 115.2559 246.1516 14.58685213441326
NOAA 20 (JPSS-1)        
1 43013U 17073A   26062.97812112  .00000103  00000+0  69758-4 0  9998
2 43013  98.7686   3.4223 0000939 145.1836 214.9401 14.19534337429545
MAKERSAT 0              
1 43016U 17073D   26062.61045766  .00030771  00000+0  93724-3 0  9998
2 43016  97.4798 304.5701 0116176 287.7327  71.1259 15.27450576450329
RADFXSAT (FOX-1B)       
1 43017U 17073E   26063.09801982  .00015828  00000+0  71680-3 0  9995
2 43017  97.4871 292.5129 0155304 331.5543  27.7272 15.10729056449511
JILIN-1 04              
1 43022U 17074A   26063.15526392  .00021437  00000+0  54713-3 0  9999
2 43022  97.4773 170.2602 0004115 197.5140 162.5964 15.39512189458099
JILIN-1 05              
1 43023U 17074B   26063.16791654  .00010404  00000+0  33543-3 0  9996
2 43023  97.4789 168.0883 0004218 230.7510 129.3358 15.32352070457910
JILIN-1 06              
1 43024U 17074C   26063.20290123  .00010290  00000+0  33185-3 0  9992
2 43024  97.4725 165.2350 0005856 247.1340 112.9284 15.32338351457755
IRIDIUM 116             
1 43072U 17083C   26062.79475887  .00000026  00000+0  20714-5 0  9992
2 43072  86.4018   6.0421 0001976  93.0058 267.1364 14.34217721429068
IRIDIUM 130             
1 43073U 17083D   26063.04211923  .00000155  00000+0  48376-4 0  9997
2 43073  86.4015   6.2025 0001962  89.4782 270.6638 14.34218029429049
LKW-2                   
1 43080U 17084A   26063.21656280  .00007320  00000+0  29756-3 0  9995
2 43080  97.1342 107.9496 0000670 190.5416 169.5809 15.24825800455689
