[{"OBJECT_NAME":"LEMUR-2-GREENBERG","OBJECT_ID":"2017-042N","EPOCH":"2026-03-04T00:37:27.837696","MEAN_MOTION":15.27711903,"ECCENTRICITY":0.0009441,"INCLINATION":97.3764,"RA_OF_ASC_NODE":244.4208,"ARG_OF_PERICENTER":23.3828,"MEAN_ANOMALY":336.7839,"EPHEMERIS_TYPE":0,"CLASSIFICATION_TYPE":"U","NORAD_CAT_ID":42837,"ELEMENT_SET_NO":999,"REV_AT_EPOCH":47231,"BSTAR":0.00094309,"MEAN_MOTION_DOT":0.00025555,"MEAN_MOTION_DDOT":0},{"OBJECT_NAME":"LEMUR-2-FURIAUS","OBJECT_ID":"2017-042R","EPOCH":"2026-03-04T01:26:43.384704","MEAN_MOTION":15.25906313,"ECCENTRICITY":0.0007569,"INCLINATION":97.3736,"RA_OF_ASC_NODE":242.6766,"ARG_OF_PERICENTER":77.2135,"MEAN_ANOMALY":282.9949,"EPHEMERIS_TYPE":0,"CLASSIFICATION_TYPE":"U","NORAD_CAT_ID":42840,"ELEMENT_SET_NO":999,"REV_AT_EPOCH":47215,"BSTAR":0.0013628,"MEAN_MOTION_DOT":0.00035028,"MEAN_MOTION_DDOT":0},{"OBJECT_NAME":"CORVUS BC2","OBJECT_ID":"2017-042X","EPOCH":"2026-03-04T00:16:54.806016","MEAN_MOTION":15.05538924,"ECCENTRICITY":0.0014248,"INCLINATION":97.3926,"RA_OF_ASC_NODE":228.57,"ARG_OF_PERICENTER":111.2589,"MEAN_ANOMALY":249.0161,"EPHEMERIS_TYPE":0,"CLASSIFICATION_TYPE":"U","NORAD_CAT_ID":42846,"ELEMENT_SET_NO":999,"REV_AT_EPOCH":47123,"BSTAR":0.00048762,"MEAN_MOTION_DOT":6.979e-5,"MEAN_MOTION_DDOT":0},{"OBJECT_NAME":"CORVUS BC1","OBJECT_ID":"2017-042Y","EPOCH":"2026-03-04T00:27:28.385856","MEAN_MOTION":15.05753866,"ECCENTRICITY":0.0013267,"INCLINATION":97.3954,"RA_OF_ASC_NODE":229.3188,"ARG_OF_PERICENTER":89.335,"MEAN_ANOMALY":270.9397,"EPHEMERIS_TYPE":0,"CLASSIFICATION_TYPE":"U","NORAD_CAT_ID":42847,"ELEMENT_SET_NO":999,"REV_AT_EPOCH":47126,"BSTAR":0.00037594,"MEAN_MOTION_DOT":5.395e-5,"MEAN_MOTION_DDOT":0},{"OBJECT_NAME":"VRSS-2","OBJECT_ID":"2017-060A","EPOCH":"2026-03-04T04:49:35.831424","MEAN_MOTION":14.81002325,"ECCENTRICITY":0.0018612,"INCLINATION":97.6663,"RA_OF_ASC_NODE":105.5958,"ARG_OF_PERICENTER":83.8932,"MEAN_ANOMALY":276.4401,"EPHEMERIS_TYPE":0,"CLASSIFICATION_TYPE":"U","NORAD_CAT_ID":42954,"ELEMENT_SET_NO":999,"REV_AT_EPOCH":45291,"BSTAR":0.00017183,"MEAN_MOTION_DOT":1.285e-5,"MEAN_MOTION_DDOT":0},{"OBJECT_NAME":"MOHAMMED VI-A","OBJECT_ID":"2017-070A","EPOCH":"2026-03-04T05:03:29.294208","MEAN_MOTION":14.77111386,"ECCENTRICITY":0.0001356,"INCLINATION":97.9449,"RA_OF_ASC_NODE":137.0369,"ARG_OF_PERICENTER":98.1652,"MEAN_ANOMALY":261.9711,"EPHEMERIS_TYPE":0,"CLASSIFICATION_TYPE":"U","NORAD_CAT_ID":43005,"ELEMENT_SET_NO":999,"REV_AT_EPOCH":44848,"BSTAR":7.7574e-5,"MEAN_MOTION_DOT":4.97e-6,"MEAN_MOTION_DDOT":0},{"OBJECT_NAME":"FENGYUN 3D","OBJECT_ID":"2017-072A","EPOCH":"2026-03-04T05:01:40.521792","MEAN_MOTION":14.19713019,"ECCENTRICITY":0.0001864,"INCLINATION":99.0015,"RA_OF_ASC_NODE":35.7954,"ARG_OF_PERICENTER":24.4605,"MEAN_ANOMALY":335.6658,"EPHEMERIS_TYPE":0,"CLASSIFICATION_TYPE":"U","NORAD_CAT_ID":43010,"ELEMENT_SET_NO":999,"REV_AT_EPOCH":43009,"BSTAR":0.00011756,"MEAN_MOTION_DOT":2.03e-6,"MEAN_MOTION_DDOT":0},{"OBJECT_NAME":"CZ-4C R/B","OBJECT_ID":"2017-072C","EPOCH":"2026-03-04T03:54:24.631776","MEAN_MOTION":14.58685213,"ECCENTRICITY":0.0123665,"INCLINATION":98.5701,"RA_OF_ASC_NODE":167.7893,"ARG_OF_PERICENTER":115.2559,"MEAN_ANOMALY":246.1516,"EPHEMERIS_TYPE":0,"CLASSIFICATION_TYPE":"U","NORAD_CAT_ID":43012,"ELEMENT_SET_NO":999,"REV_AT_EPOCH":44132,"BSTAR":0.00017957,"MEAN_MOTION_DOT":8.75e-6,"MEAN_MOTION_DDOT":0},{"OBJECT_NAME":"NOAA 20 (JPSS-1)","OBJECT_ID":"2017-073A","EPOCH":"2026-03-03T23:28:29.664768","MEAN_MOTION":14.19534337,"ECCENTRICITY":9.39e-5,"INCLINATION":98.7686,"RA_OF_ASC_NODE":3.4223,"ARG_OF_PERICENTER":145.1836,"MEAN_ANOMALY":214.9401,"EPHEMERIS_TYPE":0,"CLASSIFICATION_TYPE":"U","NORAD_CAT_ID":43013,"ELEMENT_SET_NO":999,"REV_AT_EPOCH":42954,"BSTAR":6.9758e-5,"MEAN_MOTION_DOT":1.03e-6,"MEAN_MOTION_DDOT":0},{"OBJECT_NAME":"MAKERSAT 0","OBJECT_ID":"2017-073D","EPOCH":"2026-03-03T14:39:03.541824","MEAN_MOTION":15.27450576,"ECCENTRICITY":0.0116176,"INCLINATION":97.4798,"RA_OF_ASC_NODE":304.5701,"ARG_OF_PERICENTER":287.7327,"MEAN_ANOMALY":71.1259,"EPHEMERIS_TYPE":0,"CLASSIFICATION_TYPE":"U","NORAD_CAT_ID":43016,"ELEMENT_SET_NO":999,"REV_AT_EPOCH":45032,"BSTAR":0.00093724,"MEAN_MOTION_DOT":0.00030771,"MEAN_MOTION_DDOT":0},{"OBJECT_NAME":"RADFXSAT (FOX-1B)","OBJECT_ID":"2017-073E","EPOCH":"2026-03-04T02:21:08.912448","MEAN_MOTION":15.10729056,"ECCENTRICITY":0.0155304,"INCLINATION":97.4871,"RA_OF_ASC_NODE":292.5129,"ARG_OF_PERICENTER":331.5543,"MEAN_ANOMALY":27.7272,"EPHEMERIS_TYPE":0,"CLASSIFICATION_TYPE":"U","NORAD_CAT_ID":43017,"ELEMENT_SET_NO":999,"REV_AT_EPOCH":44951,"BSTAR":0.0007168,"MEAN_MOTION_DOT":0.00015828,"MEAN_MOTION_DDOT":0},{"OBJECT_NAME":"JILIN-1 04","OBJECT_ID":"2017-074A","EPOCH":"2026-03-04T03:43:34.802688","MEAN_MOTION":15.39512189,"ECCENTRICITY":0.0004115,"INCLINATION":97.4773,"RA_OF_ASC_NODE":170.2602,"ARG_OF_PERICENTER":197.514,"MEAN_ANOMALY":162.5964,"EPHEMERIS_TYPE":0,"CLASSIFICATION_TYPE":"U","NORAD_CAT_ID":43022,"ELEMENT_SET_NO":999,"REV_AT_EPOCH":45809,"BSTAR":0.00054713,"MEAN_MOTION_DOT":0.00021437,"MEAN_MOTION_DDOT":0},{"OBJECT_NAME":"JILIN-1 05","OBJECT_ID":"2017-074B","EPOCH":"2026-03-04T04:01:47.989056","MEAN_MOTION":15.3235207,"ECCENTRICITY":0.0004218,"INCLINATION":97.4789,"RA_OF_ASC_NODE":168.0883,"ARG_OF_PERICENTER":230.751,"MEAN_ANOMALY":129.3358,"EPHEMERIS_TYPE":0,"CLASSIFICATION_TYPE":"U","NORAD_CAT_ID":43023,"ELEMENT_SET_NO":999,"REV_AT_EPOCH":45791,"BSTAR":0.00033543,"MEAN_MOTION_DOT":0.00010404,"MEAN_MOTION_DDOT":0},{"OBJECT_NAME":"JILIN-1 06","OBJECT_ID":"2017-074C","EPOCH":"2026-03-04T04:52:10.666272","MEAN_MOTION":15.32338351,"ECCENTRICITY":0.0005856,"INCLINATION":97.4725,"RA_OF_ASC_NODE":165.235,"ARG_OF_PERICENTER":247.134,"MEAN_ANOMALY":112.9284,"EPHEMERIS_TYPE":0,"CLASSIFICATION_TYPE":"U","NORAD_CAT_ID":43024,"ELEMENT_SET_NO":999,"REV_AT_EPOCH":45775,"BSTAR":0.00033185,"MEAN_MOTION_DOT":0.0001029,"MEAN_MOTION_DDOT":0},{"OBJECT_NAME":"IRIDIUM 116","OBJECT_ID":"2017-083C","EPOCH":"2026-03-03T19:04:27.166368","MEAN_MOTION":14.34217721,"ECCENTRICITY":0.0001976,"INCLINATION":86.4018,"RA_OF_ASC_NODE":6.0421,"ARG_OF_PERICENTER":93.0058,"MEAN_ANOMALY":267.1364,"EPHEMERIS_TYPE":0,"CLASSIFICATION_TYPE":"U","NORAD_CAT_ID":43072,"ELEMENT_SET_NO":999,"REV_AT_EPOCH":42906,"BSTAR":2.0714e-6,"MEAN_MOTION_DOT":2.6e-7,"MEAN_MOTION_DDOT":0},{"OBJECT_NAME":"IRIDIUM 130","OBJECT_ID":"2017-083D","EPOCH":"2026-03-04T01:00:39.101472","MEAN_MOTION":14.34218029,"ECCENTRICITY":0.0001962,"INCLINATION":86.4015,"RA_OF_ASC_NODE":6.2025,"ARG_OF_PERICENTER":89.4782,"MEAN_ANOMALY":270.6638,"EPHEMERIS_TYPE":0,"CLASSIFICATION_TYPE":"U","NORAD_CAT_ID":43073,"ELEMENT_SET_NO":999,"REV_AT_EPOCH":42904,"BSTAR":4.8376e-5,"MEAN_MOTION_DOT":1.55e-6,"MEAN_MOTION_DDOT":0},{"OBJECT_NAME":"LKW-2","OBJECT_ID":"2017-084A","EPOCH":"2026-03-04T05:11:51.025920","MEAN_MOTION":15.248258,"ECCENTRICITY":6.7e-5,"INCLINATION":97.1342,"RA_OF_ASC_NODE":107.9496,"ARG_OF_PERICENTER":190.5416,"MEAN_ANOMALY":169.5809,"EPHEMERIS_TYPE":0,"CLASSIFICATION_TYPE":"U","NORAD_CAT_ID":43080,"ELEMENT_SET_NO":999,"REV_AT_EPOCH":45568,"BSTAR":0.00029756,"MEAN_MOTION_DOT":7.32e-5,"MEAN_MOTION_DDOT":0}]
